NIMIQ 2                 
1 27632U 02062A   26190.61852603 -.00000065  00000+0  00000+0 0  9999
2 27632   9.4950  56.6558 0005332  51.3123 293.0688  1.00270181 44400
ANIK F2                 
1 28378U 04027A   26190.61817938 -.00000040  00000+0  00000+0 0  9995
2 28378   3.3424  79.1446 0003629  29.1084 290.7208  1.00271075 41489
ANIK F1R                
1 28868U 05036A   26190.34064001 -.00000065  00000+0  00000+0 0  9992
2 28868   4.3661  76.3044 0003833  23.6161 202.6901  1.00271406 46678
ANIK F3                 
1 31102U 07009A   26190.54536894  .00000011  00000+0  00000+0 0  9995
2 31102   1.2522  83.5869 0002534  32.6844 248.8270  1.00271747 46786
NIMIQ 4                 
1 33373U 08044A   26190.76637359  .00000000  00000+0  00000+0 0  9997
2 33373   0.0296  57.9905 0002120  77.1638 346.4557  1.00266263 65214
TELSTAR 11N             
1 34111U 09009A   26190.31642144 -.00000237  00000+0  00000+0 0  9992
2 34111   0.0288  77.6453 0002357  30.1744 255.8018  1.00272339 46464
TERRESTAR-1             
1 35496U 09035A   26190.64932228 -.00000048  00000+0  00000+0 0  9999
2 35496   5.1914  48.7806 0002641  51.8352 309.7177  1.00272221 62367
NIMIQ 5                 
1 35873U 09050A   26190.55429565 -.00000244  00000+0  00000+0 0  9998
2 35873   0.0542 261.5262 0002595 205.0885 307.7155  1.00269697 61568
SKYTERRA 1              
1 37218U 10061A   26190.54883561 -.00000109  00000+0  00000+0 0  9996
2 37218   5.1701  50.8108 0002142  36.2565 296.6646  1.00270797 57414
TELSTAR 14R             
1 37602U 11021A   26190.77027360 -.00000268  00000+0  00000+0 0  9998
2 37602   0.0723  84.4114 0001779 356.1053  61.4947  1.00271488 56060
NIMIQ 6                 
1 38342U 12026A   26190.66381235 -.00000161  00000+0  00000+0 0  9990
2 38342   0.0178 312.2435 0002606 158.5015 324.7175  1.00271712 50631
ANIK G1                 
1 39127U 13014A   26190.65433619 -.00000061  00000+0  00000+0 0  9992
2 39127   0.0507 261.9696 0001667 217.9242 295.9495  1.00271279 48477
TELSTAR 12V             
1 41036U 15068A   26190.77972030 -.00000106  00000+0  00000+0 0  9993
2 41036   0.0125 316.4246 0002138 160.0137  76.9821  1.00272067 38854
VIASAT-2                
1 42740U 17029A   26190.84015372 -.00000253  00000+0  00000+0 0  9993
2 42740   0.0213 298.5729 0000122 276.8154 304.9639  1.00270300 33435
LEO 1 (LEO VANTAGE 1)   
1 43113U 18004C   26190.81224755  .00003369  00000+0  23487-3 0  9994
2 43113  99.2416 112.0558 0349835  10.1963 350.6099 14.67994766440806
TELSTAR 19V             
1 43562U 18059A   26190.84154038 -.00000268  00000+0  00000+0 0  9999
2 43562   0.0364 172.7473 0002869 316.9529  38.0299  1.00270227 29379
TELSTAR 18V             
1 43611U 18069A   26190.81002505 -.00000282  00000+0  00000+0 0  9999
2 43611   0.0129 316.9268 0001767 157.7185 242.7125  1.00269969 28868
AMOS-17                 
1 44479U 19050A   26190.78612214  .00000121  00000+0  00000+0 0  9994
2 44479   0.0182 342.2847 0001358 130.6794 114.7334  1.00271505 25414
